NORAD_CAT_ID,OBJECT_NAME,OBJECT_TYPE,EPOCH,MEAN_MOTION,ECCENTRICITY,INCLINATION,RA_OF_ASC_NODE,ARG_OF_PERICENTER,MEAN_ANOMALY,BSTAR,MEAN_MOTION_DOT,MEAN_MOTION_DDOT,TLE_LINE0,TLE_LINE1,TLE_LINE2,SEMIMAJOR_AXIS,PERIOD,APOGEE,PERIGEE,DECAYED
52361.0,STARLINK-3728,PAYLOAD,2024-05-17 19:02:25,15.08821705,0.0002396,53.216,285.9981,89.2336,270.8931,-0.00012883,-2.337e-05,0.0,0 STARLINK-3728,1 52361U 22045AG  24138.79334801 -.00002337  00000-0 -12883-3 0  9995,2 52361  53.2160 285.9981 0002396  89.2336 270.8931 15.08821705116015,6917.936,95.439,541.459,538.144,0.0
52361.0,STARLINK-3728,PAYLOAD,2024-05-18 02:59:18,15.08860998,0.0001259,53.2194,284.5088,240.4201,119.6666,0.00048864,7.502e-05,0.0,0 STARLINK-3728,1 52361U 22045AG  24139.12452016  .00007502  00000-0  48864-3 0  9997,2 52361  53.2194 284.5088 0001259 240.4201 119.6666 15.08860998116061,6917.816,95.436,540.552,538.81,0.0
52361.0,STARLINK-3728,PAYLOAD,2024-05-18 14:07:00,15.08865015,8.43e-05,53.216,282.4287,106.6324,253.476,0.00058128,8.982e-05,0.0,0 STARLINK-3728,1 52361U 22045AG  24139.58820407  .00008982  00000-0  58128-3 0  9997,2 52361  53.2160 282.4287 0000843 106.6324 253.4760 15.08865015116134,6917.804,95.436,540.252,539.086,0.0
52361.0,STARLINK-3728,PAYLOAD,2024-05-18 18:53:11,15.08832919,0.0001891,53.2168,281.5389,83.4966,276.6241,7.5445e-05,9.13e-06,0.0,0 STARLINK-3728,1 52361U 22045AG  24139.78693889  .00000913  00000-0  75445-4 0  9999,2 52361  53.2168 281.5389 0001891  83.4966 276.6241 15.08832919116164,6917.902,95.438,541.075,538.459,0.0
52361.0,STARLINK-3728,PAYLOAD,2024-05-19 02:50:07,15.08822044,0.000183,53.2148,280.0508,92.9305,267.1897,-0.00017973,-3.146e-05,0.0,0 STARLINK-3728,1 52361U 22045AG  24140.11814492 -.00003146  00000-0 -17973-3 0  9997,2 52361  53.2148 280.0508 0001830  92.9305 267.1897 15.08822044116210,6917.935,95.439,541.066,538.534,0.0
52361.0,STARLINK-3728,PAYLOAD,2024-05-19 13:57:49,15.08823308,0.0001606,53.2147,277.9693,92.9936,267.124,-0.00013983,-2.512e-05,0.0,0 STARLINK-3728,1 52361U 22045AG  24140.58182811 -.00002512  00000-0 -13983-3 0  9994,2 52361  53.2147 277.9693 0001606  92.9936 267.1240 15.08823308116283,6917.931,95.439,540.907,538.685,0.0
52361.0,STARLINK-3728,PAYLOAD,2024-05-19 18:43:58,15.08841229,6.81e-05,53.218,277.0747,154.0836,206.019,6.3705e-05,7.26e-06,0.0,0 STARLINK-3728,1 52361U 22045AG  24140.78053730  .00000726  00000-0  63705-4 0  9994,2 52361  53.2180 277.0747 0000681 154.0836 206.0190 15.08841229116314,6917.877,95.437,540.213,539.271,0.0
52361.0,STARLINK-3728,PAYLOAD,2024-05-20 13:48:36,15.0885432,0.0001764,53.2175,273.505,110.0631,250.0552,0.00062187,9.627e-05,0.0,0 STARLINK-3728,1 52361U 22045AG  24141.57541968  .00009627  00000-0  62187-3 0  9998,2 52361  53.2175 273.5050 0001764 110.0631 250.0552 15.08854320116434,6917.837,95.437,540.922,538.481,0.0
52361.0,STARLINK-3728,PAYLOAD,2024-05-20 18:34:45,15.08865455,0.0001588,53.2173,272.6134,97.5771,262.5401,0.00098825,0.00015486,0.0,0 STARLINK-3728,1 52361U 22045AG  24141.77413790  .00015486  00000-0  98825-3 0  9999,2 52361  53.2173 272.6134 0001588  97.5771 262.5401 15.08865455116468,6917.803,95.436,540.766,538.569,0.0
52361.0,STARLINK-3728,PAYLOAD,2024-05-21 13:39:22,15.08854429,0.0001697,53.2179,269.0434,109.0455,251.0721,0.00040242,6.125e-05,0.0,0 STARLINK-3728,1 52361U 22045AG  24142.56901565  .00006125  00000-0  40242-3 0  9999,2 52361  53.2179 269.0434 0001697 109.0455 251.0721 15.08854429116586,6917.836,95.437,540.875,538.527,0.0
52361.0,STARLINK-3728,PAYLOAD,2024-05-21 15:14:46,15.08852757,0.00014,53.2177,268.7483,82.7801,277.3351,0.00044406,6.789e-05,0.0,0 STARLINK-3728,1 52361U 22045AG  24142.63525688  .00006789  00000-0  44406-3 0  9997,2 52361  53.2177 268.7483 0001400  82.7801 277.3351 15.08852757116591,6917.841,95.437,540.675,538.738,0.0
52361.0,STARLINK-3728,PAYLOAD,2024-05-22 11:54:47,15.0883632,0.0001444,53.2174,264.8854,100.1591,259.9564,0.00073162,0.00011374,0.0,0 STARLINK-3728,1 52361U 22045AG  24143.49638235  .00011374  00000-0  73162-3 0  9992,2 52361  53.2174 264.8854 0001444 100.1591 259.9564 15.08836320116721,6917.892,95.438,540.756,538.758,0.0
52361.0,STARLINK-3728,PAYLOAD,2024-05-23 13:20:57,15.08840173,0.0001372,53.2177,260.127,81.4284,278.6864,0.00073533,0.00011434,0.0,0 STARLINK-3728,1 52361U 22045AG  24144.55622412  .00011434  00000-0  73533-3 0  9999,2 52361  53.2177 260.1270 0001372  81.4284 278.6864 15.08840173116884,6917.88,95.438,540.694,538.796,0.0
52361.0,STARLINK-3728,PAYLOAD,2024-05-23 14:56:20,15.08845586,0.0001423,53.2172,259.8269,88.9062,271.2093,0.00098824,0.00015477,0.0,0 STARLINK-3728,1 52361U 22045AG  24144.62246323  .00015477  00000-0  98824-3 0  9991,2 52361  53.2172 259.8269 0001423  88.9062 271.2093 15.08845586116892,6917.863,95.437,540.713,538.744,0.0
52361.0,STARLINK-3728,PAYLOAD,2024-05-24 14:47:07,15.0885993,0.0001262,53.2158,255.3705,88.6975,271.4162,0.0012218,0.00019221,0.0,0 STARLINK-3728,1 52361U 22045AG  24145.61605825  .00019221  00000-0  12218-2 0  9990,2 52361  53.2158 255.3705 0001262  88.6975 271.4162 15.08859930117048,6917.819,95.436,540.558,538.811,0.0
52361.0,STARLINK-3728,PAYLOAD,2024-05-24 16:22:30,15.0886958,0.0001246,53.2156,255.0719,113.8704,246.2418,0.0015072,0.000238,0.0,0 STARLINK-3728,1 52361U 22045AG  24145.68229486  .00023800  00000-0  15072-2 0  9991,2 52361  53.2156 255.0719 0001246 113.8704 246.2418 15.08869580117058,6917.79,95.436,540.517,538.793,0.0
52361.0,STARLINK-3728,PAYLOAD,2024-05-25 00:19:25,15.08839153,7.68e-05,53.2147,253.5824,88.8312,271.2768,-0.00023799,-4.073e-05,0.0,0 STARLINK-3728,1 52361U 22045AG  24146.01349532 -.00004073  00000-0 -23799-3 0  9993,2 52361  53.2147 253.5824 0000768  88.8312 271.2768 15.08839153117107,6917.883,95.438,540.279,539.217,0.0
52361.0,STARLINK-3728,PAYLOAD,2024-05-25 14:37:54,15.08830629,0.0001198,53.2155,250.9113,75.7306,284.3819,0.00026669,3.958e-05,0.0,0 STARLINK-3728,1 52361U 22045AG  24146.60966434  .00003958  00000-0  26669-3 0  9992,2 52361  53.2155 250.9113 0001198  75.7306 284.3819 15.08830629117194,6917.909,95.438,540.603,538.945,0.0
52361.0,STARLINK-3728,PAYLOAD,2024-05-26 12:53:19,15.08848214,0.0001195,53.2149,246.7477,77.4075,282.7051,0.0009862,0.00015446,0.0,0 STARLINK-3728,1 52361U 22045AG  24147.53702839  .00015446  00000-0  98620-3 0  9993,2 52361  53.2149 246.7477 0001195  77.4075 282.7051 15.08848214117337,6917.855,95.437,540.547,538.894,0.0
52361.0,STARLINK-3728,PAYLOAD,2024-05-27 12:44:06,15.08849393,0.0001415,53.2154,242.2886,64.7234,295.3905,0.00040706,6.198e-05,0.0,0 STARLINK-3728,1 52361U 22045AG  24148.53062673  .00006198  00000-0  40706-3 0  9995,2 52361  53.2154 242.2886 0001415  64.7234 295.3905 15.08849393117482,6917.852,95.437,540.696,538.738,0.0
52361.0,STARLINK-3728,PAYLOAD,2024-05-28 10:59:29,15.08847805,0.0001325,53.2153,238.1254,86.1665,273.9479,0.00018757,2.699e-05,0.0,0 STARLINK-3728,1 52361U 22045AG  24149.45798331  .00002699  00000-0  18757-3 0  9997,2 52361  53.2153 238.1254 0001325  86.1665 273.9479 15.08847805117620,6917.857,95.437,540.638,538.805,0.0
52361.0,STARLINK-3728,PAYLOAD,2024-05-28 12:34:52,15.08841221,0.0001275,53.2154,237.8281,79.7405,280.373,-2.2499e-05,-6.46e-06,0.0,0 STARLINK-3728,1 52361U 22045AG  24149.52422366 -.00000646  00000-0 -22499-4 0  9998,2 52361  53.2154 237.8281 0001275  79.7405 280.3730 15.08841221117630,6917.877,95.437,540.624,538.86,0.0
52361.0,STARLINK-3728,PAYLOAD,2024-05-29 12:25:40,15.08832829,0.0001312,53.2164,233.3678,91.9467,268.1676,-0.00015839,-2.807e-05,0.0,0 STARLINK-3728,1 52361U 22045AG  24150.51782603 -.00002807  00000-0 -15839-3 0  9992,2 52361  53.2164 233.3678 0001312  91.9467 268.1676 15.08832829117781,6917.902,95.438,540.675,538.86,0.0
52361.0,STARLINK-3728,PAYLOAD,2024-05-30 12:16:26,15.08843417,0.0001337,53.2168,228.9076,93.0242,267.0903,5.5613e-05,5.97e-06,0.0,0 STARLINK-3728,1 52361U 22045AG  24151.51142236  .00000597  00000-0  55613-4 0  9992,2 52361  53.2168 228.9076 0001337  93.0242 267.0903 15.08843417117931,6917.87,95.437,540.66,538.81,0.0
52361.0,STARLINK-3728,PAYLOAD,2024-05-30 15:27:13,15.08848461,0.0001327,53.2163,228.3102,93.407,266.7074,0.00025574,3.785e-05,0.0,0 STARLINK-3728,1 52361U 22045AG  24151.64390219  .00003785  00000-0  25574-3 0  9996,2 52361  53.2163 228.3102 0001327  93.4070 266.7074 15.08848461117953,6917.855,95.437,540.638,538.802,0.0
52361.0,STARLINK-3728,PAYLOAD,2024-05-31 10:31:50,15.08841066,0.0001374,53.2165,224.7404,95.3807,264.7342,6.3862e-05,7.29e-06,0.0,0 STARLINK-3728,1 52361U 22045AG  24152.43878414  .00000729  00000-0  63862-4 0  9990,2 52361  53.2165 224.7404 0001374  95.3807 264.7342 15.08841066118075,6917.877,95.437,540.693,538.792,0.0
52361.0,STARLINK-3728,PAYLOAD,2024-05-31 12:07:14,15.08843159,0.000126,53.2165,224.4481,86.0802,274.0334,0.00013019,1.785e-05,0.0,0 STARLINK-3728,1 52361U 22045AG  24152.50502432  .00001785  00000-0  13019-3 0  9993,2 52361  53.2165 224.4481 0001260  86.0802 274.0334 15.08843159118084,6917.871,95.437,540.607,538.864,0.0
52361.0,STARLINK-3728,PAYLOAD,2024-06-01 04:01:05,15.08836673,0.0001301,53.2169,221.4752,84.9381,275.176,-2.8849e-05,-7.47e-06,0.0,0 STARLINK-3728,1 52361U 22045AG  24153.16742618 -.00000747  00000-0 -28849-4 0  9995,2 52361  53.2169 221.4752 0001301  84.9381 275.1760 15.08836673118180,6917.891,95.438,540.656,538.856,0.0
52361.0,STARLINK-3728,PAYLOAD,2024-06-01 11:58:01,15.08835847,0.0001269,53.2163,219.9878,81.5702,278.5434,1.0732e-05,-1.17e-06,0.0,0 STARLINK-3728,1 52361U 22045AG  24153.49862763 -.00000117  00000-0  10732-4 0  9997,2 52361  53.2163 219.9878 0001269  81.5702 278.5434 15.08835847118231,6917.893,95.438,540.636,538.88,0.0
52361.0,STARLINK-3728,PAYLOAD,2024-06-02 11:48:48,15.08832212,0.0001236,53.2153,215.5255,84.1299,275.9834,-1.3266e-05,-4.99e-06,0.0,0 STARLINK-3728,1 52361U 22045AG  24154.49223259 -.00000499  00000-0 -13266-4 0  9998,2 52361  53.2153 215.5255 0001236  84.1299 275.9834 15.08832212118389,6917.904,95.438,540.624,538.914,0.0
